STARLINK-30336          
1 57703U 23129F   26068.43006818 -.00025562  00000+0 -94572-3 0  9992
2 57703  43.0053 119.3118 0002777 264.8085  95.2449 15.26764582140508
FLOCK 4G-27             
1 62641U 25009AJ  26068.75406453  .00012587  00000+0  47455-3 0  9991
2 62641  97.3976 150.8631 0000756 322.4974  37.6212 15.27199247 63710
